OBJECT_NAME,OBJECT_ID,EPOCH,MEAN_MOTION,ECCENTRICITY,INCLINATION,RA_OF_ASC_NODE,ARG_OF_PERICENTER,MEAN_ANOMALY,EPHEMERIS_TYPE,CLASSIFICATION_TYPE,NORAD_CAT_ID,ELEMENT_SET_NO,REV_AT_EPOCH,BSTAR,MEAN_MOTION_DOT,MEAN_MOTION_DDOT
CUTE-1 (CO-55),2003-031E,2026-07-16T12:59:16.292256,14.24352049,.0010852,98.6744,205.7314,99.2116,261.0291,0,U,27844,999,19585,.75515E-4,.131E-5,0
CUBESAT XI-IV (CO-57),2003-031J,2026-07-16T23:11:08.373696,14.23635119,.00106,98.6775,205.8397,114.7088,245.5195,0,U,27848,999,19561,.66478E-4,.108E-5,0
CUBESAT XI-V,2005-043F,2026-07-16T16:28:52.831776,14.72704407,.0015305,98.3017,353.9342,110.8516,249.4332,0,U,28895,999,10609,.1069E-3,.63E-5,0
CUTE-1.7+APD II (CO-65),2008-021C,2026-07-17T03:26:04.458624,15.09711162,.0006888,97.8298,180.1938,291.6035,68.4459,0,U,32785,999,98971,.14519E-3,.2273E-4,0
CANX-2,2008-021H,2026-07-16T22:14:54.669696,15.05811785,.0008606,97.8657,178.2901,311.2562,48.7922,0,U,32790,999,98928,.96949E-4,.1341E-4,0
SEEDS II (CO-66),2008-021J,2026-07-16T12:05:34.598688,15.33693982,.0003211,97.7523,196.8243,153.5241,206.6165,0,U,32791,999,99178,.32533E-3,.10519E-3,0
SWISSCUBE,2009-051B,2026-07-16T17:23:11.734368,14.62532363,.0007905,98.4005,106.1245,114.9711,245.2311,0,U,35932,999,89347,.99539E-4,.456E-5,0
BEESAT-1,2009-051C,2026-07-16T16:20:27.869568,14.61763234,.0006186,98.3932,105.6536,125.9975,234.1800,0,U,35933,999,89349,.86615E-4,.383E-5,0
ITUPSAT1,2009-051E,2026-07-17T04:15:10.956096,14.60480346,.0008205,98.4015,105.3171,137.6090,222.5745,0,U,35935,999,89311,.79459E-4,.337E-5,0
TISAT 1,2010-035E,2026-07-16T19:55:58.897056,15.32770774,.0004608,98.0717,147.0371,116.8908,243.2804,0,U,36799,999,87224,.36749E-3,.1155E-3,0
STRAND-1,2013-009E,2026-07-16T10:28:10.914816,14.37179260,.0009469,98.3935,16.9527,137.7246,222.4672,0,U,39090,999,70126,.51462E-4,.11E-5,0
BRITE-AUSTRIA,2013-009F,2026-07-16T22:47:05.464320,14.36552927,.0010858,98.4010,16.6507,145.7302,214.4587,0,U,39091,999,70132,.37191E-4,.67E-6,0
NEE-01 PEGASO,2013-018B,2026-07-16T20:58:38.538624,14.93793467,.0013663,98.1259,343.0137,69.4848,290.7835,0,U,39151,999,71513,.13328E-3,.1354E-4,0
POPACS 2,2013-055E,2026-07-16T18:14:56.683392,14.92059367,.0414807,80.9912,110.3288,98.8611,265.9796,0,U,39269,999,66762,.24345E-3,.14928E-3,-.92122E-6
POPACS 3,2013-055F,2026-07-15T10:09:59.798592,14.56665007,.05487499,80.9990,198.5566,343.9708,14.4695,0,U,39270,999,64266,.19704028E-3,.8298E-4,0
ZACUBE-1 (TSHEPISOSAT),2013-066B,2026-07-16T22:25:12.714816,15.01333422,.004409,97.8006,160.4171,149.6523,210.7268,0,U,39417,999,68519,.10162E-3,.1271E-4,0
WNISAT-1,2013-066H,2026-07-16T15:37:50.064096,14.58121814,.0163959,97.7237,344.7215,138.7515,222.6209,0,U,39423,999,67102,.11161E-3,.571E-5,0
TRITON-1,2013-066M,2026-07-17T05:04:05.721312,14.81800261,.0090701,97.8226,107.3325,135.5895,225.2638,0,U,39427,999,67853,.12548E-3,.1007E-4,0
GOMX-1,2013-066Q,2026-07-17T00:13:50.813760,14.69545196,.0128086,97.6462,36.5902,342.3661,17.3119,0,U,39430,999,67429,.10069E-3,.624E-5,0
CUBEBUG-2 (LO-74),2013-066AA,2026-07-16T19:15:47.811744,14.93973680,.0055539,97.8917,146.9130,289.9004,69.6236,0,U,39440,999,68141,.20214E-3,.2156E-4,0
NEE-02 KRYSAOR,2013-066AB,2026-07-16T19:45:23.781024,14.86743048,.006527,97.8897,136.8299,333.9056,25.8874,0,U,39441,999,68060,.12543E-3,.11E-4,0
FUNCUBE-1 (AO-73),2013-066AE,2026-07-16T21:11:52.011168,15.09830753,.0037941,97.8292,169.9592,102.2043,258.3439,0,U,39444,999,68414,.25213E-3,.4077E-4,0
UWE-3,2013-066AG,2026-07-16T19:46:31.675008,14.97205791,.0047571,97.8716,154.1042,218.9248,140.8545,0,U,39446,999,68201,.1784E-3,.2047E-4,0
BRITE-CA1 (TORONTO),2014-033L,2026-07-16T19:07:57.386208,14.72724378,.007856,97.9774,326.1854,181.1277,178.9766,0,U,40020,999,64657,.84822E-4,.514E-5,0
DUCHIFAT-1,2014-033M,2026-07-16T16:46:11.491104,15.71313651,.0002787,98.0414,261.1627,236.8489,123.2505,0,U,40021,999,66037,.77546E-3,.99153E-3,0
NANOSATC-BR1,2014-033Q,2026-07-17T01:20:30.962688,15.32365382,.0005253,98.0704,233.1102,91.9307,268.2534,0,U,40024,999,65855,.32893E-3,.10197E-3,0
QB50P1,2014-033R,2026-07-16T14:32:28.363776,15.18678566,.0010431,98.0963,210.8240,120.5690,239.6573,0,U,40025,999,65749,.21031E-3,.4288E-4,0
QB50P2,2014-033Y,2026-07-16T22:43:30.768096,15.15520360,.0009271,98.0763,196.6896,79.0258,281.2015,0,U,40032,999,65717,.22476E-3,.4187E-4,0
PERSEUS-M2,2014-033AD,2026-07-17T04:06:03.083328,14.95593380,.0010979,97.9987,149.3266,192.4551,167.6399,0,U,40037,999,65526,.50047E-4,.495E-5,0
PERSEUS-M1,2014-033AF,2026-07-16T19:21:58.154976,14.95719308,.0011012,97.9654,142.4284,190.7598,169.3388,0,U,40039,999,65506,.90612E-4,.949E-5,0
